ADRAS-J                 
1 58992U 24034A   24247.44673936  .00008050  00000+0  72666-3 0  9999
2 58992  98.2198 224.1019 0044222 149.0234 211.3608 14.95041461 29555
